{"type": "FeatureCollection", "features": [{"type": "Feature", "id": "AZ.BSAP", "properties": {"name": "Borrego Springs Airport, CA, USA", "code": "BSAP", "network": "AZ", "distance": 184.46, "source": "AZ", "channels": [{"name": "HNE", "amplitudes": [{"name": "sa(0.3)", "ln_sigma": 0, "flag": 0, "value": 0.22812416, "units": "%g"}, {"name": "sa(1.0)", "ln_sigma": 0, "flag": 0, "value": 0.033655841, "units": "%g"}, {"name": "sa(3.0)", "ln_sigma": 0, "flag": 0, "value": 0.010468525, "units": "%g"}, {"name": "pga", "ln_sigma": 0, "flag": 0, "value": 0.054233294, "units": "%g"}, {"name": "pgv", "ln_sigma": 0, "flag": 0, "value": 0.033260704, "units": "cm/s"}]}, {"name": "HNN", "amplitudes": [{"name": "sa(0.3)", "ln_sigma": 0, "flag": 0, "value": 0.19597122, "units": "%g"}, {"name": "sa(1.0)", "ln_sigma": 0, "flag": 0, "value": 0.027287818, "units": "%g"}, {"name": "sa(3.0)", "ln_sigma": 0, "flag": 0, "value": 0.0047902578, "units": "%g"}, {"name": "pga", "ln_sigma": 0, "flag": 0, "value": 0.054251942, "units": "%g"}, {"name": "pgv", "ln_sigma": 0, "flag": 0, "value": 0.02884034, "units": "cm/s"}]}, {"name": "HNZ", "amplitudes": [{"name": "sa(0.3)", "ln_sigma": 0, "flag": 0, "value": 0.10414328, "units": "%g"}, {"name": "sa(1.0)", "ln_sigma": 0, "flag": 0, "value": 0.018162408, "units": "%g"}, {"name": "sa(3.0)", "ln_sigma": 0, "flag": 0, "value": 0.0034692826, "units": "%g"}, {"name": "pga", "ln_sigma": 0, "flag": 0, "value": 0.042148296, "units": "%g"}, {"name": "pgv", "ln_sigma": 0, "flag": 0, "value": 0.017553017, "units": "cm/s"}]}]}, "geometry": {"type": "Point", "coordinates": [-116.322304, 33.260201, 160.0]}}, {"type": "Feature", "id": "AZ.GARR", "properties": {"name": "Garrison Ranch, CA, USA", "code": "GARR", "network": "AZ", "distance": 139.54, "source": "AZ", "channels": [{"name": "HNE", "amplitudes": [{"name": "sa(0.3)", "ln_sigma": 0, "flag": 0, "value": 0.61682997, "units": "%g"}, {"name": "sa(1.0)", "ln_sigma": 0, "flag": 0, "value": 0.14818009, "units": "%g"}, {"name": "sa(3.0)", "ln_sigma": 0, "flag": 0, "value": 0.0083202449, "units": "%g"}, {"name": "pga", "ln_sigma": 0, "flag": 0, "value": 0.28990168, "units": "%g"}, {"name": "pgv", "ln_sigma": 0, "flag": 0, "value": 0.16604363, "units": "cm/s"}]}, {"name": "HNN", "amplitudes": [{"name": "sa(0.3)", "ln_sigma": 0, "flag": 0, "value": 1.5886242, "units": "%g"}, {"name": "sa(1.0)", "ln_sigma": 0, "flag": 0, "value": 0.075968067, "units": "%g"}, {"name": "sa(3.0)", "ln_sigma": 0, "flag": 0, "value": 0.0077521168, "units": "%g"}, {"name": "pga", "ln_sigma": 0, "flag": 0, "value": 0.36440409, "units": "%g"}, {"name": "pgv", "ln_sigma": 0, "flag": 0, "value": 0.16299916, "units": "cm/s"}]}, {"name": "HNZ", "amplitudes": [{"name": "sa(0.3)", "ln_sigma": 0, "flag": 0, "value": 0.44971047, "units": "%g"}, {"name": "sa(1.0)", "ln_sigma": 0, "flag": 0, "value": 0.077029703, "units": "%g"}, {"name": "sa(3.0)", "ln_sigma": 0, "flag": 0, "value": 0.0050440123, "units": "%g"}, {"name": "pga", "ln_sigma": 0, "flag": 0, "value": 0.14767461, "units": "%g"}, {"name": "pgv", "ln_sigma": 0, "flag": 0, "value": 0.074034734, "units": "cm/s"}]}]}, "geometry": {"type": "Point", "coordinates": [-116.670799, 33.591801, 1442.0]}}, {"type": "Feature", "id": "AZ.HSSP", "properties": {"name": "Hill Street, Anza, CA, USA", "code": "HSSP", "network": "AZ", "distance": 140.41, "source": "AZ", "channels": [{"name": "HNE", "amplitudes": [{"name": "sa(0.3)", "ln_sigma": 0, "flag": 0, "value": 0.76496071, "units": "%g"}, {"name": "sa(1.0)", "ln_sigma": 0, "flag": 0, "value": 0.09681989, "units": "%g"}, {"name": "sa(3.0)", "ln_sigma": 0, "flag": 0, "value": 0.0060263415, "units": "%g"}, {"name": "pga", "ln_sigma": 0, "flag": 0, "value": 0.1950336, "units": "%g"}, {"name": "pgv", "ln_sigma": 0, "flag": 0, "value": 0.088036594, "units": "cm/s"}]}, {"name": "HNN", "amplitudes": [{"name": "sa(0.3)", "ln_sigma": 0, "flag": 0, "value": 0.68342842, "units": "%g"}, {"name": "sa(1.0)", "ln_sigma": 0, "flag": 0, "value": 0.073675621, "units": "%g"}, {"name": "sa(3.0)", "ln_sigma": 0, "flag": 0, "value": 0.0045396672, "units": "%g"}, {"name": "pga", "ln_sigma": 0, "flag": 0, "value": 0.16582273, "units": "%g"}, {"name": "pgv", "ln_sigma": 0, "flag": 0, "value": 0.10663608, "units": "cm/s"}]}, {"name": "HNZ", "amplitudes": [{"name": "sa(0.3)", "ln_sigma": 0, "flag": 0, "value": 0.41210949, "units": "%g"}, {"name": "sa(1.0)", "ln_sigma": 0, "flag": 0, "value": 0.073749252, "units": "%g"}, {"name": "sa(3.0)", "ln_sigma": 0, "flag": 0, "value": 0.0036886819, "units": "%g"}, {"name": "pga", "ln_sigma": 0, "flag": 0, "value": 0.12073082, "units": "%g"}, {"name": "pgv", "ln_sigma": 0, "flag": 0, "value": 0.071650562, "units": "cm/s"}]}]}, "geometry": {"type": "Point", "coordinates": [-116.664101, 33.584702, 1388.0]}}, {"type": "Feature", "id": "AZ.SETM", "properties": {"name": "South East Table Mountain, Anza, CA, USA", "code": "SETM", "network": "AZ", "distance": 152.37, "source": "AZ", "channels": [{"name": "HNE", "amplitudes": [{"name": "sa(0.3)", "ln_sigma": 0, "flag": 0, "value": 0.26545154, "units": "%g"}, {"name": "sa(1.0)", "ln_sigma": 0, "flag": 0, "value": 0.023314051, "units": "%g"}, {"name": "sa(3.0)", "ln_sigma": 0, "flag": 0, "value": 0.0030105568, "units": "%g"}, {"name": "pga", "ln_sigma": 0, "flag": 0, "value": 0.057418147, "units": "%g"}, {"name": "pgv", "ln_sigma": 0, "flag": 0, "value": 0.031043117, "units": "cm/s"}]}, {"name": "HNN", "amplitudes": [{"name": "sa(0.3)", "ln_sigma": 0, "flag": 0, "value": 0.1493105, "units": "%g"}, {"name": "sa(1.0)", "ln_sigma": 0, "flag": 0, "value": 0.016725205, "units": "%g"}, {"name": "sa(3.0)", "ln_sigma": 0, "flag": 0, "value": 0.0018401258, "units": "%g"}, {"name": "pga", "ln_sigma": 0, "flag": 0, "value": 0.037123138, "units": "%g"}, {"name": "pgv", "ln_sigma": 0, "flag": 0, "value": 0.018911875, "units": "cm/s"}]}, {"name": "HNZ", "amplitudes": [{"name": "sa(0.3)", "ln_sigma": 0, "flag": 0, "value": 0.14768806, "units": "%g"}, {"name": "sa(1.0)", "ln_sigma": 0, "flag": 0, "value": 0.015096824, "units": "%g"}, {"name": "sa(3.0)", "ln_sigma": 0, "flag": 0, "value": 0.0020318895, "units": "%g"}, {"name": "pga", "ln_sigma": 0, "flag": 0, "value": 0.046543518, "units": "%g"}, {"name": "pgv", "ln_sigma": 0, "flag": 0, "value": 0.019548257, "units": "cm/s"}]}]}, "geometry": {"type": "Point", "coordinates": [-116.5615, 33.5097, 1216.0]}}, {"type": "Feature", "id": "AZ.SGBF", "properties": {"name": "SGBF, CA, USA", "code": "SGBF", "network": "AZ", "distance": 148.53, "source": "AZ", "channels": [{"name": "HNE", "amplitudes": [{"name": "sa(0.3)", "ln_sigma": 0, "flag": 0, "value": 0.32863873, "units": "%g"}, {"name": "sa(1.0)", "ln_sigma": 0, "flag": 0, "value": 0.025166283, "units": "%g"}, {"name": "sa(3.0)", "ln_sigma": 0, "flag": 0, "value": 0.0020293988, "units": "%g"}, {"name": "pga", "ln_sigma": 0, "flag": 0, "value": 0.10504952, "units": "%g"}, {"name": "pgv", "ln_sigma": 0, "flag": 0, "value": 0.046230242, "units": "cm/s"}]}, {"name": "HNN", "amplitudes": [{"name": "sa(0.3)", "ln_sigma": 0, "flag": 0, "value": 0.26049566, "units": "%g"}, {"name": "sa(1.0)", "ln_sigma": 0, "flag": 0, "value": 0.016884437, "units": "%g"}, {"name": "sa(3.0)", "ln_sigma": 0, "flag": 0, "value": 0.0025069965, "units": "%g"}, {"name": "pga", "ln_sigma": 0, "flag": 0, "value": 0.097647297, "units": "%g"}, {"name": "pgv", "ln_sigma": 0, "flag": 0, "value": 0.033676462, "units": "cm/s"}]}, {"name": "HNZ", "amplitudes": [{"name": "sa(0.3)", "ln_sigma": 0, "flag": 0, "value": 0.151067, "units": "%g"}, {"name": "sa(1.0)", "ln_sigma": 0, "flag": 0, "value": 0.018814646, "units": "%g"}, {"name": "sa(3.0)", "ln_sigma": 0, "flag": 0, "value": 0.0018310458, "units": "%g"}, {"name": "pga", "ln_sigma": 0, "flag": 0, "value": 0.06131545, "units": "%g"}, {"name": "pgv", "ln_sigma": 0, "flag": 0, "value": 0.024999082, "units": "cm/s"}]}]}, "geometry": {"type": "Point", "coordinates": [-116.592903, 33.536499, 1463.0]}}, {"type": "Feature", "id": "AZ.SIO5", "properties": {"name": "Mt. Soledad, La Jolla, CA", "code": "SIO5", "network": "AZ", "distance": 153.61, "source": "AZ", "channels": [{"name": "HHE", "amplitudes": [{"name": "sa(0.3)", "ln_sigma": 0, "flag": 0, "value": 0.30977603, "units": "%g"}, {"name": "sa(1.0)", "ln_sigma": 0, "flag": 0, "value": 0.026601967, "units": "%g"}, {"name": "sa(3.0)", "ln_sigma": 0, "flag": 0, "value": 0.0033533014, "units": "%g"}, {"name": "pga", "ln_sigma": 0, "flag": 0, "value": 0.089863531, "units": "%g"}, {"name": "pgv", "ln_sigma": 0, "flag": 0, "value": 0.045008411, "units": "cm/s"}]}, {"name": "HHN", "amplitudes": [{"name": "sa(0.3)", "ln_sigma": 0, "flag": 0, "value": 0.25117166, "units": "%g"}, {"name": "sa(1.0)", "ln_sigma": 0, "flag": 0, "value": 0.045769208, "units": "%g"}, {"name": "sa(3.0)", "ln_sigma": 0, "flag": 0, "value": 0.0039144667, "units": "%g"}, {"name": "pga", "ln_sigma": 0, "flag": 0, "value": 0.071929682, "units": "%g"}, {"name": "pgv", "ln_sigma": 0, "flag": 0, "value": 0.031788372, "units": "cm/s"}]}, {"name": "HHZ", "amplitudes": [{"name": "sa(0.3)", "ln_sigma": 0, "flag": 0, "value": 0.21009573, "units": "%g"}, {"name": "sa(1.0)", "ln_sigma": 0, "flag": 0, "value": 0.013533357, "units": "%g"}, {"name": "sa(3.0)", "ln_sigma": 0, "flag": 0, "value": 0.0023337287, "units": "%g"}, {"name": "pga", "ln_sigma": 0, "flag": 0, "value": 0.049919736, "units": "%g"}, {"name": "pgv", "ln_sigma": 0, "flag": 0, "value": 0.020900141, "units": "cm/s"}]}]}, "geometry": {"type": "Point", "coordinates": [-117.249702, 32.840698, 217.0]}}, {"type": "Feature", "id": "AZ.STGP", "properties": {"name": "Santiago Peak, CA, USA", "code": "STGP", "network": "AZ", "distance": 62.08, "source": "AZ", "channels": [{"name": "HNE", "amplitudes": [{"name": "sa(0.3)", "ln_sigma": 0, "flag": 0, "value": 1.2358541, "units": "%g"}, {"name": "sa(1.0)", "ln_sigma": 0, "flag": 0, "value": 0.036125342, "units": "%g"}, {"name": "sa(3.0)", "ln_sigma": 0, "flag": 0, "value": 0.0064539762, "units": "%g"}, {"name": "pga", "ln_sigma": 0, "flag": 0, "value": 0.52636484, "units": "%g"}, {"name": "pgv", "ln_sigma": 0, "flag": 0, "value": 0.16804332, "units": "cm/s"}]}, {"name": "HNN", "amplitudes": [{"name": "sa(0.3)", "ln_sigma": 0, "flag": 0, "value": 1.4159196, "units": "%g"}, {"name": "sa(1.0)", "ln_sigma": 0, "flag": 0, "value": 0.041107339, "units": "%g"}, {"name": "sa(3.0)", "ln_sigma": 0, "flag": 0, "value": 0.0081359122, "units": "%g"}, {"name": "pga", "ln_sigma": 0, "flag": 0, "value": 0.5111277, "units": "%g"}, {"name": "pgv", "ln_sigma": 0, "flag": 0, "value": 0.19081587, "units": "cm/s"}]}, {"name": "HNZ", "amplitudes": [{"name": "sa(0.3)", "ln_sigma": 0, "flag": 0, "value": 0.47171191, "units": "%g"}, {"name": "sa(1.0)", "ln_sigma": 0, "flag": 0, "value": 0.018172722, "units": "%g"}, {"name": "sa(3.0)", "ln_sigma": 0, "flag": 0, "value": 0.0027551655, "units": "%g"}, {"name": "pga", "ln_sigma": 0, "flag": 0, "value": 0.30469719, "units": "%g"}, {"name": "pgv", "ln_sigma": 0, "flag": 0, "value": 0.08082406, "units": "cm/s"}]}]}, "geometry": {"type": "Point", "coordinates": [-117.5355, 33.711, 1690.0]}}, {"type": "Feature", "id": "BC.CBX", "properties": {"name": "CERRO BOLA MEX", "code": "CBX", "network": "BC", "distance": 232.48, "source": "BC", "channels": [{"name": "HHE", "amplitudes": [{"name": "sa(0.3)", "ln_sigma": 0, "flag": 0, "value": 0.11453268, "units": "%g"}, {"name": "sa(1.0)", "ln_sigma": 0, "flag": 0, "value": 0.012277265, "units": "%g"}, {"name": "sa(3.0)", "ln_sigma": 0, "flag": 0, "value": 0.0019606131, "units": "%g"}, {"name": "pga", "ln_sigma": 0, "flag": 0, "value": 0.037852208, "units": "%g"}, {"name": "pgv", "ln_sigma": 0, "flag": 0, "value": 0.019719267, "units": "cm/s"}]}, {"name": "HHN", "amplitudes": [{"name": "sa(0.3)", "ln_sigma": 0, "flag": 0, "value": 0.082489151, "units": "%g"}, {"name": "sa(1.0)", "ln_sigma": 0, "flag": 0, "value": 0.012985974, "units": "%g"}, {"name": "sa(3.0)", "ln_sigma": 0, "flag": 0, "value": 0.0011978382, "units": "%g"}, {"name": "pga", "ln_sigma": 0, "flag": 0, "value": 0.024115713, "units": "%g"}, {"name": "pgv", "ln_sigma": 0, "flag": 0, "value": 0.012158189, "units": "cm/s"}]}, {"name": "HHZ", "amplitudes": [{"name": "sa(0.3)", "ln_sigma": 0, "flag": 0, "value": 0.064447565, "units": "%g"}, {"name": "sa(1.0)", "ln_sigma": 0, "flag": 0, "value": 0.0039279704, "units": "%g"}, {"name": "sa(3.0)", "ln_sigma": 0, "flag": 0, "value": 0.00099555081, "units": "%g"}, {"name": "pga", "ln_sigma": 0, "flag": 0, "value": 0.018555484, "units": "%g"}, {"name": "pgv", "ln_sigma": 0, "flag": 0, "value": 0.0072946529, "units": "cm/s"}]}]}, "geometry": {"type": "Point", "coordinates": [-116.6636, 32.3131, 1250.0]}}, {"type": "Feature", "id": "BK.THIS", "properties": {"name": "South End of Cholame Valley, Shandon, CA, USA", "code": "THIS", "network": "BK", "distance": 271.21, "source": "BK", "channels": [{"name": "HNE", "amplitudes": [{"name": "sa(0.3)", "ln_sigma": 0, "flag": 0, "value": 0.013813248, "units": "%g"}, {"name": "sa(1.0)", "ln_sigma": 0, "flag": 0, "value": 0.01526047, "units": "%g"}, {"name": "sa(3.0)", "ln_sigma": 0, "flag": 0, "value": 0.0023719803, "units": "%g"}, {"name": "pga", "ln_sigma": 0, "flag": 0, "value": 0.0075879751, "units": "%g"}, {"name": "pgv", "ln_sigma": 0, "flag": 0, "value": 0.0096259128, "units": "cm/s"}]}, {"name": "HNN", "amplitudes": [{"name": "sa(0.3)", "ln_sigma": 0, "flag": 0, "value": 0.015122635, "units": "%g"}, {"name": "sa(1.0)", "ln_sigma": 0, "flag": 0, "value": 0.017360301, "units": "%g"}, {"name": "sa(3.0)", "ln_sigma": 0, "flag": 0, "value": 0.0017301528, "units": "%g"}, {"name": "pga", "ln_sigma": 0, "flag": 0, "value": 0.0062822001, "units": "%g"}, {"name": "pgv", "ln_sigma": 0, "flag": 0, "value": 0.0089671354, "units": "cm/s"}]}, {"name": "HNZ", "amplitudes": [{"name": "sa(0.3)", "ln_sigma": 0, "flag": 0, "value": 0.0099895497, "units": "%g"}, {"name": "sa(1.0)", "ln_sigma": 0, "flag": 0, "value": 0.007138415, "units": "%g"}, {"name": "sa(3.0)", "ln_sigma": 0, "flag": 0, "value": 0.00087013237, "units": "%g"}, {"name": "pga", "ln_sigma": 0, "flag": 0, "value": 0.0031713197, "units": "%g"}, {"name": "pgv", "ln_sigma": 0, "flag": 0, "value": 0.0044119016, "units": "cm/s"}]}]}, "geometry": {"type": "Point", "coordinates": [-120.228447, 35.724049, 643.0]}}, {"type": "Feature", "id": "CI.AGO", "properties": {"name": "Agoura", "code": "AGO", "network": "CI", "distance": 64.53, "source": "CI", "channels": [{"name": "HNE", "amplitudes": [{"name": "sa(0.3)", "ln_sigma": 0, "flag": 0, "value": 1.2967234, "units": "%g"}, {"name": "sa(1.0)", "ln_sigma": 0, "flag": 0, "value": 0.092548485, "units": "%g"}, {"name": "sa(3.0)", "ln_sigma": 0, "flag": 0, "value": 0.0064822423, "units": "%g"}, {"name": "pga", "ln_sigma": 0, "flag": 0, "value": 0.43652256, "units": "%g"}, {"name": "pgv", "ln_sigma": 0, "flag": 0, "value": 0.14637604, "units": "cm/s"}]}, {"name": "HNN", "amplitudes": [{"name": "sa(0.3)", "ln_sigma": 0, "flag": 0, "value": 0.71440196, "units": "%g"}, {"name": "sa(1.0)", "ln_sigma": 0, "flag": 0, "value": 0.0882228, "units": "%g"}, {"name": "sa(3.0)", "ln_sigma": 0, "flag": 0, "value": 0.0089989838, "units": "%g"}, {"name": "pga", "ln_sigma": 0, "flag": 0, "value": 0.33511204, "units": "%g"}, {"name": "pgv", "ln_sigma": 0, "flag": 0, "value": 0.1592117, "units": "cm/s"}]}, {"name": "HNZ", "amplitudes": [{"name": "sa(0.3)", "ln_sigma": 0, "flag": 0, "value": 0.72006526, "units": "%g"}, {"name": "sa(1.0)", "ln_sigma": 0, "flag": 0, "value": 0.060694161, "units": "%g"}, {"name": "sa(3.0)", "ln_sigma": 0, "flag": 0, "value": 0.0057859849, "units": "%g"}, {"name": "pga", "ln_sigma": 0, "flag": 0, "value": 0.33742234, "units": "%g"}, {"name": "pgv", "ln_sigma": 0, "flag": 0, "value": 0.13798132, "units": "cm/s"}]}]}, "geometry": {"type": "Point", "coordinates": [-118.76699, 34.14647, 259.0]}}, {"type": "Feature", "id": "CI.APL", "properties": {"name": "Apollo", "code": "APL", "network": "CI", "distance": 181.95, "source": "CI", "channels": [{"name": "HNE", "amplitudes": [{"name": "sa(0.3)", "ln_sigma": 0, "flag": 0, "value": 0.076621551, "units": "%g"}, {"name": "sa(1.0)", "ln_sigma": 0, "flag": 0, "value": 0.020906626, "units": "%g"}, {"name": "sa(3.0)", "ln_sigma": 0, "flag": 0, "value": 0.0034157131, "units": "%g"}, {"name": "pga", "ln_sigma": 0, "flag": 0, "value": 0.025697852, "units": "%g"}, {"name": "pgv", "ln_sigma": 0, "flag": 0, "value": 0.019741091, "units": "cm/s"}]}, {"name": "HNN", "amplitudes": [{"name": "sa(0.3)", "ln_sigma": 0, "flag": 0, "value": 0.052080267, "units": "%g"}, {"name": "sa(1.0)", "ln_sigma": 0, "flag": 0, "value": 0.024072075, "units": "%g"}, {"name": "sa(3.0)", "ln_sigma": 0, "flag": 0, "value": 0.0017759866, "units": "%g"}, {"name": "pga", "ln_sigma": 0, "flag": 0, "value": 0.022354032, "units": "%g"}, {"name": "pgv", "ln_sigma": 0, "flag": 0, "value": 0.014486874, "units": "cm/s"}]}, {"name": "HNZ", "amplitudes": [{"name": "sa(0.3)", "ln_sigma": 0, "flag": 0, "value": 0.065800423, "units": "%g"}, {"name": "sa(1.0)", "ln_sigma": 0, "flag": 0, "value": 0.052069135, "units": "%g"}, {"name": "sa(3.0)", "ln_sigma": 0, "flag": 0, "value": 0.0025154851, "units": "%g"}, {"name": "pga", "ln_sigma": 0, "flag": 0, "value": 0.025581543, "units": "%g"}, {"name": "pgv", "ln_sigma": 0, "flag": 0, "value": 0.026290544, "units": "cm/s"}]}]}, "geometry": {"type": "Point", "coordinates": [-116.87464, 35.34149, 959.0]}}, {"type": "Feature", "id": "CI.BAC", "properties": {"name": "Bachelor Mountain", "code": "BAC", "network": "CI", "distance": 107.19, "source": "CI", "channels": [{"name": "HNE", "amplitudes": [{"name": "sa(0.3)", "ln_sigma": 0, "flag": 0, "value": 0.23000798, "units": "%g"}, {"name": "sa(1.0)", "ln_sigma": 0, "flag": 0, "value": 0.017287012, "units": "%g"}, {"name": "sa(3.0)", "ln_sigma": 0, "flag": 0, "value": 0.0040686086, "units": "%g"}, {"name": "pga", "ln_sigma": 0, "flag": 0, "value": 0.84409361, "units": "%g"}, {"name": "pgv", "ln_sigma": 0, "flag": 0, "value": 0.13882252, "units": "cm/s"}]}, {"name": "HNN", "amplitudes": [{"name": "sa(0.3)", "ln_sigma": 0, "flag": 0, "value": 0.33611887, "units": "%g"}, {"name": "sa(1.0)", "ln_sigma": 0, "flag": 0, "value": 0.032386538, "units": "%g"}, {"name": "sa(3.0)", "ln_sigma": 0, "flag": 0, "value": 0.0042026246, "units": "%g"}, {"name": "pga", "ln_sigma": 0, "flag": 0, "value": 0.7597677, "units": "%g"}, {"name": "pgv", "ln_sigma": 0, "flag": 0, "value": 0.15023642, "units": "cm/s"}]}, {"name": "HNZ", "amplitudes": [{"name": "sa(0.3)", "ln_sigma": 0, "flag": 0, "value": 0.23183616, "units": "%g"}, {"name": "sa(1.0)", "ln_sigma": 0, "flag": 0, "value": 0.025449364, "units": "%g"}, {"name": "sa(3.0)", "ln_sigma": 0, "flag": 0, "value": 0.0034764546, "units": "%g"}, {"name": "pga", "ln_sigma": 0, "flag": 0, "value": 0.62518846, "units": "%g"}, {"name": "pgv", "ln_sigma": 0, "flag": 0, "value": 0.10585041, "units": "cm/s"}]}]}, "geometry": {"type": "Point", "coordinates": [-117.0406, 33.6122, 551.0]}}, {"type": "Feature", "id": "CI.BAI", "properties": {"name": "Bailey", "code": "BAI", "network": "CI", "distance": 103.84, "source": "CI", "channels": [{"name": "HNE", "amplitudes": [{"name": "sa(0.3)", "ln_sigma": 0, "flag": 0, "value": 0.10808204, "units": "%g"}, {"name": "sa(1.0)", "ln_sigma": 0, "flag": 0, "value": 0.042995809, "units": "%g"}, {"name": "sa(3.0)", "ln_sigma": 0, "flag": 0, "value": 0.0029022502, "units": "%g"}, {"name": "pga", "ln_sigma": 0, "flag": 0, "value": 0.058792705, "units": "%g"}, {"name": "pgv", "ln_sigma": 0, "flag": 0, "value": 0.030721444, "units": "cm/s"}]}, {"name": "HNN", "amplitudes": [{"name": "sa(0.3)", "ln_sigma": 0, "flag": 0, "value": 0.18880032, "units": "%g"}, {"name": "sa(1.0)", "ln_sigma": 0, "flag": 0, "value": 0.026389809, "units": "%g"}, {"name": "sa(3.0)", "ln_sigma": 0, "flag": 0, "value": 0.0025063845, "units": "%g"}, {"name": "pga", "ln_sigma": 0, "f